NORAD_CAT_ID,OBJECT_NAME,OBJECT_TYPE,EPOCH,MEAN_MOTION,ECCENTRICITY,INCLINATION,RA_OF_ASC_NODE,ARG_OF_PERICENTER,MEAN_ANOMALY,BSTAR,MEAN_MOTION_DOT,MEAN_MOTION_DDOT,TLE_LINE0,TLE_LINE1,TLE_LINE2,SEMIMAJOR_AXIS,PERIOD,APOGEE,PERIGEE,DECAYED
51794.0,STARLINK-3573,PAYLOAD,2024-03-31 06:08:35,15.08832571,0.0001863,53.2168,289.4049,86.3081,273.8124,9.7733e-05,1.267e-05,0.0,0 STARLINK-3573,1 51794U 22017AC  24091.25597163  .00001267  00000-0  97733-4 0  9991,2 51794  53.2168 289.4049 0001863  86.3081 273.8124 15.08832571116974,6917.903,95.438,541.057,538.479,0.0
51794.0,STARLINK-3573,PAYLOAD,2024-03-31 20:27:03,15.08853077,0.0001356,53.2171,286.7278,82.5844,277.5302,6.8613e-06,-1.79e-06,0.0,0 STARLINK-3573,1 51794U 22017AC  24091.85211984 -.00000179  00000-0  68613-5 0  9999,2 51794  53.2171 286.7278 0001356  82.5844 277.5302 15.08853077117068,6917.84,95.437,540.643,538.767,0.0
51794.0,STARLINK-3573,PAYLOAD,2024-04-01 12:20:55,15.08833919,0.0001266,53.2167,283.7568,85.5438,274.5699,0.00013647,1.884e-05,0.0,0 STARLINK-3573,1 51794U 22017AC  24092.51452876  .00001884  00000-0  13647-3 0  9998,2 51794  53.2167 283.7568 0001266  85.5438 274.5699 15.08833919117164,6917.899,95.438,540.64,538.888,0.0
51794.0,STARLINK-3573,PAYLOAD,2024-04-02 12:11:42,15.088368,0.0001092,53.2168,279.2947,86.7427,273.369,9.3432e-05,1.199e-05,0.0,0 STARLINK-3573,1 51794U 22017AC  24093.50812928  .00001199  00000-0  93432-4 0  9996,2 51794  53.2168 279.2947 0001092  86.7427 273.3690 15.08836800117311,6917.89,95.438,540.511,539.0,0.0
51794.0,STARLINK-3573,PAYLOAD,2024-04-02 18:33:14,15.08844421,0.0001336,53.2167,278.1054,84.5836,275.5308,5.4792e-05,5.84e-06,0.0,0 STARLINK-3573,1 51794U 22017AC  24093.77308540  .00000584  00000-0  54792-4 0  9998,2 51794  53.2167 278.1054 0001336  84.5836 275.5308 15.08844421117350,6917.867,95.437,540.656,538.808,0.0
51794.0,STARLINK-3573,PAYLOAD,2024-04-03 12:02:29,15.08826743,0.0001288,53.2164,274.8325,94.312,265.802,0.00026515,3.933e-05,0.0,0 STARLINK-3573,1 51794U 22017AC  24094.50173063  .00003933  00000-0  26515-3 0  9992,2 51794  53.2164 274.8325 0001288  94.3120 265.8020 15.08826743117464,6917.921,95.438,540.677,538.895,0.0
51794.0,STARLINK-3573,PAYLOAD,2024-04-03 21:34:47,15.08844289,0.000125,53.2163,273.0482,91.9924,268.1211,8.7628e-05,1.107e-05,0.0,0 STARLINK-3573,1 51794U 22017AC  24094.89916358  .00001107  00000-0  87628-4 0  9990,2 51794  53.2163 273.0482 0001250  91.9924 268.1211 15.08844289117522,6917.867,95.437,540.597,538.868,0.0
51794.0,STARLINK-3573,PAYLOAD,2024-04-04 11:53:16,15.08837917,0.0001196,53.2156,270.3727,90.1225,269.9905,3.283e-05,2.35e-06,0.0,0 STARLINK-3573,1 51794U 22017AC  24095.49532891  .00000235  00000-0  32830-4 0  9999,2 51794  53.2156 270.3727 0001196  90.1225 269.9905 15.08837917117619,6917.887,95.438,540.579,538.924,0.0
51794.0,STARLINK-3573,PAYLOAD,2024-04-04 15:04:02,15.08837238,0.0001199,53.2157,269.7777,90.6772,269.4358,2.3941e-05,9.3e-07,0.0,0 STARLINK-3573,1 51794U 22017AC  24095.62780963  .00000093  00000-0  23941-4 0  9994,2 51794  53.2157 269.7777 0001199  90.6772 269.4358 15.08837238117637,6917.889,95.438,540.583,538.924,0.0
51794.0,STARLINK-3573,PAYLOAD,2024-04-04 18:14:48,15.08839049,0.0001259,53.2162,269.1835,92.4191,267.6945,2.2065e-05,6.3e-07,0.0,0 STARLINK-3573,1 51794U 22017AC  24095.76028856  .00000063  00000-0  22065-4 0  9998,2 51794  53.2162 269.1835 0001259  92.4191 267.6945 15.08839049117650,6917.883,95.438,540.619,538.877,0.0
51794.0,STARLINK-3573,PAYLOAD,2024-04-05 14:54:49,15.08843629,0.0001223,53.2157,265.3154,90.9533,269.1599,6.2174e-05,7.02e-06,0.0,0 STARLINK-3573,1 51794U 22017AC  24096.62140311  .00000702  00000-0  62174-4 0  9990,2 51794  53.2157 265.3154 0001223  90.9533 269.1599 15.08843629117785,6917.869,95.437,540.58,538.888,0.0
51794.0,STARLINK-3573,PAYLOAD,2024-04-05 18:05:35,15.08847571,0.0001256,53.2162,264.7232,89.1775,270.9361,9.7767e-05,1.269e-05,0.0,0 STARLINK-3573,1 51794U 22017AC  24096.75387960  .00001269  00000-0  97767-4 0  9992,2 51794  53.2162 264.7232 0001256  89.1775 270.9361 15.08847571117805,6917.857,95.437,540.591,538.853,0.0
51794.0,STARLINK-3573,PAYLOAD,2024-04-06 03:37:54,15.08841776,0.0001162,53.2154,262.938,79.8672,280.2451,-7.2257e-06,-4.03e-06,0.0,0 STARLINK-3573,1 51794U 22017AC  24097.15132479 -.00000403  00000-0 -72257-5 0  9999,2 51794  53.2154 262.9380 0001162  79.8672 280.2451 15.08841776117869,6917.875,95.437,540.544,538.936,0.0
51794.0,STARLINK-3573,PAYLOAD,2024-04-06 11:34:50,15.08833445,0.0001406,53.2181,261.4535,96.1581,263.9572,1.1809e-05,-1e-06,0.0,0 STARLINK-3573,1 51794U 22017AC  24097.48253164 -.00000100  00000-0  11809-4 0  9998,2 51794  53.2181 261.4535 0001406  96.1581 263.9572 15.08833445117919,6917.9,95.438,540.738,538.793,0.0
51794.0,STARLINK-3573,PAYLOAD,2024-04-06 17:56:23,15.08835057,0.0001413,53.2183,260.2634,95.8474,264.2679,2.0406e-05,3.7e-07,0.0,0 STARLINK-3573,1 51794U 22017AC  24097.74749122  .00000037  00000-0  20406-4 0  9992,2 51794  53.2183 260.2634 0001413  95.8474 264.2679 15.08835057117950,6917.895,95.438,540.738,538.783,0.0
51794.0,STARLINK-3573,PAYLOAD,2024-04-07 19:22:33,15.08833817,0.0001335,53.2187,255.5066,88.376,271.7385,-3.4043e-05,-8.3e-06,0.0,0 STARLINK-3573,1 51794U 22017AC  24098.80733775 -.00000830  00000-0 -34043-4 0  9992,2 51794  53.2187 255.5066 0001335  88.3760 271.7385 15.08833817118116,6917.899,95.438,540.688,538.841,0.0
51794.0,STARLINK-3573,PAYLOAD,2024-04-08 03:19:29,15.08842481,0.0001335,53.2177,254.0189,90.1132,270.0013,-3.632e-05,-8.66e-06,0.0,0 STARLINK-3573,1 51794U 22017AC  24099.13853262 -.00000866  00000-0 -36320-4 0  9992,2 51794  53.2177 254.0189 0001335  90.1132 270.0013 15.08842481118161,6917.873,95.437,540.661,538.814,0.0
51794.0,STARLINK-3573,PAYLOAD,2024-04-09 03:10:15,15.08843444,0.0001168,53.215,249.5557,83.9437,276.1689,0.00016101,2.276e-05,0.0,0 STARLINK-3573,1 51794U 22017AC  24100.13212712  .00002276  00000-0  16101-3 0  9993,2 51794  53.2150 249.5557 0001168  83.9437 276.1689 15.08843444118315,6917.87,95.437,540.543,538.927,0.0
51794.0,STARLINK-3573,PAYLOAD,2024-04-09 15:53:21,15.08837688,0.0001239,53.2139,247.1768,84.8681,275.2453,5.3451e-05,5.63e-06,0.0,0 STARLINK-3573,1 51794U 22017AC  24100.66205478  .00000563  00000-0  53451-4 0  9999,2 51794  53.2139 247.1768 0001239  84.8681 275.2453 15.08837688118390,6917.887,95.438,540.61,538.895,0.0
51794.0,STARLINK-3573,PAYLOAD,2024-04-10 09:22:35,15.08846326,0.0001759,53.2163,243.9071,83.3285,276.7908,1.2304e-05,-9.2e-07,0.0,0 STARLINK-3573,1 51794U 22017AC  24101.39069074 -.00000092  00000-0  12304-4 0  9990,2 51794  53.2163 243.9071 0001759  83.3285 276.7908 15.08846326118502,6917.861,95.437,540.943,538.509,0.0
51794.0,STARLINK-3573,PAYLOAD,2024-04-10 15:44:07,15.08848333,0.000172,53.2144,242.7177,83.5713,276.5475,2.5858e-05,1.24e-06,0.0,0 STARLINK-3573,1 51794U 22017AC  24101.65564710  .00000124  00000-0  25858-4 0  9999,2 51794  53.2144 242.7177 0001720  83.5713 276.5475 15.08848333118542,6917.855,95.437,540.91,538.53,0.0
51794.0,STARLINK-3573,PAYLOAD,2024-04-11 12:24:09,15.08833595,0.0001456,53.216,238.853,85.0667,275.0492,-2.3274e-05,-6.58e-06,0.0,0 STARLINK-3573,1 51794U 22017AC  24102.51677670 -.00000658  00000-0 -23274-4 0  9999,2 51794  53.2160 238.8530 0001456  85.0667 275.0492 15.08833595118671,6917.9,95.438,540.772,538.758,0.0
51794.0,STARLINK-3573,PAYLOAD,2024-04-11 13:59:32,15.08834732,0.00015,53.216,238.5555,84.6646,275.4517,-1.2938e-05,-4.94e-06,0.0,0 STARLINK-3573,1 51794U 22017AC  24102.58301596 -.00000494  00000-0 -12938-4 0  9990,2 51794  53.2160 238.5555 0001500  84.6646 275.4517 15.08834732118684,6917.896,95.438,540.799,538.724,0.0
51794.0,STARLINK-3573,PAYLOAD,2024-04-11 15:34:55,15.08839451,0.0001451,53.2167,238.2572,90.3387,269.7771,1.9918e-05,2.9e-07,0.0,0 STARLINK-3573,1 51794U 22017AC  24102.64925171  .00000029  00000-0  19918-4 0  9995,2 51794  53.2167 238.2572 0001451  90.3387 269.7771 15.08839451118690,6917.882,95.438,540.751,538.743,0.0
51794.0,STARLINK-3573,PAYLOAD,2024-04-12 13:50:19,15.08840333,0.0001478,53.2171,234.0927,96.7098,263.4062,2.6318e-05,1.31e-06,0.0,0 STARLINK-3573,1 51794U 22017AC  24103.57661205  .00000131  00000-0  26318-4 0  9999,2 51794  53.2171 234.0927 0001478  96.7098 263.4062 15.08840333118832,6917.879,95.438,540.767,538.722,0.0
51794.0,STARLINK-3573,PAYLOAD,2024-04-12 15:25:42,15.08842202,0.0001305,53.2177,233.7961,96.7855,263.3286,2.546e-05,1.17e-06,0.0,0 STARLINK-3573,1 51794U 22017AC  24103.64285120  .00000117  00000-0  25460-4 0  9996,2 51794  53.2177 233.7961 0001305  96.7855 263.3286 15.08842202118847,6917.874,95.437,540.641,538.836,0.0
51794.0,STARLINK-3573,PAYLOAD,2024-04-13 12:05:43,15.0884541,0.0001338,53.218,229.9301,95.2931,264.8213,-0.0001072,-1.994e-05,0.0,0 STARLINK-3573,1 51794U 22017AC  24104.50397351 -.00001994  00000-0 -10720-3 0  9990,2 51794  53.2180 229.9301 0001338  95.2931 264.8213 15.08845410118975,6917.864,95.437,540.654,538.803,0.0
51794.0,STARLINK-3573,PAYLOAD,2024-04-13 13:41:06,15.08835004,0.0001563,53.218,229.6329,102.5662,257.5505,6.644e-05,7.69e-06,0.0,0 STARLINK-3573,1 51794U 22017AC  24104.57021790  .00000769  00000-0  66440-4 0  9996,2 51794  53.2180 229.6329 0001563 102.5662 257.5505 15.08835004118987,6917.896,95.438,540.842,538.679,0.0
51794.0,STARLINK-3573,PAYLOAD,2024-04-13 15:16:29,15.08837736,0.0001564,53.2181,229.3361,101.5334,258.5834,6.6798e-05,7.75e-06,0.0,0 STARLINK-3573,1 51794U 22017AC  24104.63645639  .00000775  00000-0  66798-4 0  9990,2 51794  53.2181 229.3361 0001564 101.5334 258.5834 15.08837736118998,6917.887,95.438,540.834,538.67,0.0
51794.0,STARLINK-3573,PAYLOAD,2024-04-14 13:31:53,15.08849629,0.0001444,53.2176,225.1738,93.5712,266.5446,0.00012961,1.776e-05,0.0,0 STARLINK-3573,1 51794U 22017AC  24105.56381011  .00001776  00000-0  12961-3 0  9998,2 51794  53.2176 225.1738 0001444  93.5712 266.5446 15.08849629119130,6917.851,95.437,540.715,538.717,0.0
